FENGYUN 1C DEB          
1 36206U 99025DUF 17331.95247031  .00000243  00000-0  14497-3 0  9995
2 36206  98.7954  36.5505 0032952 181.1442 178.9662 14.15804638516042
